[{"OBJECT_NAME":"STARLINK-5844","OBJECT_ID":"2023-088W","EPOCH":"2026-03-09T19:40:23.820096","MEAN_MOTION":15.02583341,"ECCENTRICITY":0.00013868,"INCLINATION":43.0037,"RA_OF_ASC_NODE":106.3865,"ARG_OF_PERICENTER":257.8065,"MEAN_ANOMALY":102.2622,"EPHEMERIS_TYPE":0,"CLASSIFICATION_TYPE":"U","NORAD_CAT_ID":57068,"ELEMENT_SET_NO":999,"REV_AT_EPOCH":15039,"BSTAR":-0.0007433388,"MEAN_MOTION_DOT":-0.00010243,"MEAN_MOTION_DDOT":0},{"OBJECT_NAME":"DELTA 2 R\/B","OBJECT_ID":"1991-028B","EPOCH":"2026-03-09T16:54:47.341440","MEAN_MOTION":12.55574373,"ECCENTRICITY":0.11332323,"INCLINATION":23.9918,"RA_OF_ASC_NODE":235.5778,"ARG_OF_PERICENTER":170.7263,"MEAN_ANOMALY":191.6105,"EPHEMERIS_TYPE":0,"CLASSIFICATION_TYPE":"U","NORAD_CAT_ID":21228,"ELEMENT_SET_NO":999,"REV_AT_EPOCH":59793,"BSTAR":0.00053436572,"MEAN_MOTION_DOT":1.35e-5,"MEAN_MOTION_DDOT":0}]
